IRIDIUM 119             
1 42959U 17061E   23253.04134166  .00000125  00000+0  37547-4 0  9991
2 42959  86.3916  87.8344 0002347  86.3031 273.8433 14.34216066309886
IRIDIUM 107             
1 42960U 17061F   23252.78129123  .00000115  00000+0  34005-4 0  9995
2 42960  86.3913  87.9584 0002243  82.3311 277.8139 14.34217849309869
IRIDIUM 132             
1 42961U 17061G   23252.78763546  .00000106  00000+0  30915-4 0  9995
2 42961  86.3912  87.9418 0002308  85.3723 274.7736 14.34215487309851
IRIDIUM 136             
1 42962U 17061H   23252.26120207  .00000097  00000+0  27424-4 0  9990
2 42962  86.3914  88.1644 0002237  93.3513 266.7938 14.34213913309795
IRIDIUM 139             
1 42963U 17061J   23252.61637115  .00000141  00000+0  43220-4 0  9993
2 42963  86.3916  88.0619 0002260  84.6538 275.4916 14.34216153309854
IRIDIUM 125             
1 42964U 17061K   23252.53392992  .00000039  00000+0  67825-5 0  9990
2 42964  86.3920  88.1389 0002315  85.4597 274.6863 14.34217603309853
IRIDIUM 135             
1 43070U 17083A   23252.78712447  .00000451  00000+0  15409-3 0  9998
2 43070  86.4004  24.6974 0001772  88.9235 271.2164 14.34217027299185
IRIDIUM 138             
1 43071U 17083B   23252.81249088  .00000489  00000+0  16740-3 0  9999
2 43071  86.3991  24.4393 0002261  93.2571 266.8884 14.34218170299177
